LEMUR-1                 
1 40044U 14033AL  26196.92518393  .00000778  00000+0  95096-4 0  9991
2 40044  97.7910 346.0985 0047669 345.4974  14.4870 14.85338142649732
LEMUR-2-GREENBERG       
1 42837U 17042N   26197.02655987  .00009545  00000+0  30952-3 0  9999
2 42837  97.3829  17.5375 0007245 255.7525 104.2912 15.32169235492800
LEMUR-2-ANDIS           
1 42838U 17042P   26196.98733140  .00013224  00000+0  37972-3 0  9990
2 42838  97.3680  17.7865 0007230 254.8431 105.2013 15.35945333492876
LEMUR-2-MONSON          
1 42839U 17042Q   26197.03306831  .00007683  00000+0  27734-3 0  9998
2 42839  97.4086  17.4710 0005356 241.0088 119.0616 15.28765588492570
LEMUR-2-FURIAUS         
1 42840U 17042R   26196.97469007  .00010380  00000+0  34726-3 0  9994
2 42840  97.3775  15.3762 0006033 326.8661  33.2202 15.31147084492614
LEMUR-2-PETERG          
1 42841U 17042S   26197.05385493  .00011626  00000+0  34405-3 0  9999
2 42841  97.3990  22.1561 0003362 216.1647 143.9370 15.35048749492868
LEMUR-2-DEMBITZ         
1 42842U 17042T   26196.47161280  .00008871  00000+0  29756-3 0  9992
2 42842  97.3825  17.9201 0005052 273.6984  86.3679 15.31114268492676
LEMUR-2-ZACHARY         
1 42845U 17042W   26197.14778911  .00029924  00000+0  48425-3 0  9991
2 42845  97.3567  29.4519 0002543 241.2778 118.8219 15.52774793493698
LEMUR-2-AMANDA-SVANTE   
1 48269U 21034B   26196.77651924  .00021640  00000+0  61885-3 0  9997
2 48269  97.5750 275.8503 0004652 141.7869 218.3705 15.35984090285440
LEMUR-2-SPECIAL-K       
1 48273U 21034F   26196.77829720  .00199645  00000+0  13215-2 0  9997
2 48273  97.5635 285.9220 0006279 213.1843 146.9028 15.74935345286175
LEMUR-2-EMBRIONOVIS     
1 56970U 23084AQ  26197.15575359  .00007387  00000+0  19819-3 0  9994
2 56970  97.6320 342.4868 0008456 202.2383 157.8496 15.38244072172134
LEMUR-2-DEVERILL-M-T    
1 57391U 23100F   26197.07491124  .00015273  00000+0  37141-3 0  9990
2 57391  99.4451 244.2087 0004690 293.4879  66.5868 15.41119232165692
LEMUR-2-BASS            
1 58259U 23174D   26196.73423198  .00011022  00000+0  24344-3 0  9992
2 58259  97.3849 281.8631 0007645  76.5946 283.6154 15.44006422149763
LEMUR-2-JK0903EM1407    
1 58336U 23174CJ  26197.21425150  .00015716  00000+0  25252-3 0  9995
2 58336  97.3926 288.5330 0003550  29.4194 330.7258 15.53102524150231
LEMUR-2-MJR092620       
1 58340U 23174CN  26197.16688191  .00010531  00000+0  21850-3 0  9990
2 58340  97.3977 287.7503 0005206  27.1194 333.0326 15.45884267150122
LEMUR-2-NIMBUS2000      
1 58899U 24022A   26197.11259929  .00012191  00000+0  29589-3 0  9991
2 58899  97.4075  47.4963 0008670  25.7184 334.4492 15.41139769136728
LEMUR-2-VALHALLA        
1 58900U 24022B   26197.11783350  .00008848  00000+0  21993-3 0  9999
2 58900  97.4075  47.4706 0009123  21.0050 339.1569 15.40504761136725
LEMUR-2-CAEL            
1 58903U 24022E   26197.10261961  .00010356  00000+0  24579-3 0  9990
2 58903  97.4056  48.4432 0007036   6.2963 353.8371 15.41875284136796
LEMUR-2-JOHNNYTRUONG    
1 59146U 24043BA  26196.98636197  .00026505  00000+0  29764-3 0  9999
2 59146  97.5396 350.5235 0004045  92.1391 268.0330 15.62606919132538
LEMUR-2-TOMATOKECHUP    
1 60471U 24149D   26197.22156473  .00005790  00000+0  16437-3 0  9997
2 60471  97.3797 279.3526 0003335 120.7156 239.4417 15.36594859106622
LEMUR-2-STELLA          
1 60533U 24149BT  26197.19850837  .00005213  00000+0  30425-3 0  9990
2 60533  97.6736 279.7913 0001252 119.4240 240.7115 15.12381661104881
LEMUR-2-MARHISYAM       
1 60536U 24149BW  26196.99124778  .00005792  00000+0  34321-3 0  9999
2 60536  97.6879 280.0603 0002350  68.5739 291.5741 15.11786231104835
LEMUR-2-AHMED-ASRAR     
1 60576U 24149DN  26197.06307353  .00006620  00000+0  37543-3 0  9994
2 60576  97.7004 282.3394 0001315 205.3539 154.7627 15.13317176104935
LEMUR-2-LLOYD           
1 60577U 24149DP  26197.14279032  .00004425  00000+0  27809-3 0  9991
2 60577  97.6745 278.2966 0004748  70.3623 289.8117 15.09760013104765
LEMUR-2-SQUIRRELCOMM    
1 60578U 24149DQ  26197.19922736  .00002060  00000+0  14009-3 0  9994
2 60578  97.6708 278.0240 0004046 322.9708  37.1239 15.07450971104776
LEMUR-2-SIERRINI        
1 60579U 24149DR  26197.15267705  .00005253  00000+0  31379-3 0  9995
2 60579  97.6842 279.8834 0006481  88.0014 272.1958 15.11523490104837
LEMUR-2-WILSON          
1 62694U 25009CP  26197.13870667  .00000706  00000+0  69249-4 0  9992
2 62694  97.7020 275.0959 0001954 319.6157  40.4919 14.95277841 81680
LEMUR-2-STAR-FOX        
1 62696U 25009CR  26197.19216881  .00003311  00000+0  25160-3 0  9990
2 62696  97.6906 278.5926 0002077  38.2858 321.8515 15.02847456 81913
LEMUR-2-ARIANNA         
1 62699U 25009CU  26197.19063442  .00003528  00000+0  26779-3 0  9993
2 62699  97.6848 278.3426 0002441  45.4866 314.6558 15.02849743 81916
LEMUR-2-ALISIA          
1 62706U 25009DB  26197.16278189  .00003920  00000+0  29439-3 0  9997
2 62706  97.6971 279.1419 0004421 126.4435 233.7199 15.03183137104518
