OBJECT_NAME,OBJECT_ID,EPOCH,MEAN_MOTION,ECCENTRICITY,INCLINATION,RA_OF_ASC_NODE,ARG_OF_PERICENTER,MEAN_ANOMALY,EPHEMERIS_TYPE,CLASSIFICATION_TYPE,NORAD_CAT_ID,ELEMENT_SET_NO,REV_AT_EPOCH,BSTAR,MEAN_MOTION_DOT,MEAN_MOTION_DDOT
LEMUR-1,2014-033AL,2026-07-15T22:12:15.891552,14.85338142,.00476698,97.7910,346.0985,345.4974,14.4870,0,U,40044,999,64973,.95096253E-4,.778E-5,0
LEMUR-2-GREENBERG,2017-042N,2026-07-16T00:38:14.772768,15.32169235,.0007245,97.3829,17.5375,255.7525,104.2912,0,U,42837,999,49280,.30952E-3,.9545E-4,0
LEMUR-2-ANDIS,2017-042P,2026-07-15T23:41:45.432960,15.35945333,.000723,97.3680,17.7865,254.8431,105.2013,0,U,42838,999,49287,.37972E-3,.13224E-3,0
LEMUR-2-MONSON,2017-042Q,2026-07-16T00:47:37.101984,15.28765588,.0005356,97.4086,17.4710,241.0088,119.0616,0,U,42839,999,49257,.27734E-3,.7683E-4,0
LEMUR-2-FURIAUS,2017-042R,2026-07-15T23:23:33.222048,15.31147084,.0006033,97.3775,15.3762,326.8661,33.2202,0,U,42840,999,49261,.34726E-3,.1038E-3,0
LEMUR-2-PETERG,2017-042S,2026-07-16T01:17:33.065952,15.35048749,.0003362,97.3990,22.1561,216.1647,143.9370,0,U,42841,999,49286,.34405E-3,.11626E-3,0
LEMUR-2-DEMBITZ,2017-042T,2026-07-15T11:19:07.345920,15.31114268,.00050522,97.3825,17.9201,273.6984,86.3679,0,U,42842,999,49267,.29755612E-3,.8871E-4,0
LEMUR-2-ZACHARY,2017-042W,2026-07-16T03:32:48.979104,15.52774793,.0002543,97.3567,29.4519,241.2778,118.8219,0,U,42845,999,49369,.48425E-3,.29924E-3,0
LEMUR-2-AMANDA-SVANTE,2021-034B,2026-07-15T18:38:11.262336,15.35984090,.00046521,97.5750,275.8503,141.7869,218.3705,0,U,48269,999,28544,.61884833E-3,.2164E-3,0
LEMUR-2-SPECIAL-K,2021-034F,2026-07-15T18:40:44.878080,15.74935345,.00062794,97.5635,285.9220,213.1843,146.9028,0,U,48273,999,28617,.13215308E-2,.199645E-2,0
LEMUR-2-EMBRIONOVIS,2023-084AQ,2026-07-16T03:44:17.110176,15.38244072,.0008456,97.6320,342.4868,202.2383,157.8496,0,U,56970,999,17213,.19819E-3,.7387E-4,0
LEMUR-2-DEVERILL-M-T,2023-100F,2026-07-16T01:47:52.331136,15.41119232,.000469,99.4451,244.2087,293.4879,66.5868,0,U,57391,999,16569,.37141E-3,.15273E-3,0
LEMUR-2-BASS,2023-174D,2026-07-15T17:37:17.643072,15.44006422,.00076452,97.3849,281.8631,76.5946,283.6154,0,U,58259,999,14976,.24343668E-3,.11022E-3,0
LEMUR-2-JK0903EM1407,2023-174CJ,2026-07-16T05:08:31.329600,15.53102524,.000355,97.3926,288.5330,29.4194,330.7258,0,U,58336,999,15023,.25252E-3,.15716E-3,0
LEMUR-2-MJR092620,2023-174CN,2026-07-16T04:00:18.597024,15.45884267,.0005206,97.3977,287.7503,27.1194,333.0326,0,U,58340,999,15012,.2185E-3,.10531E-3,0
LEMUR-2-NIMBUS2000,2024-022A,2026-07-16T02:42:08.578656,15.41139769,.000867,97.4075,47.4963,25.7184,334.4492,0,U,58899,999,13672,.29589E-3,.12191E-3,0
LEMUR-2-VALHALLA,2024-022B,2026-07-16T02:49:40.814400,15.40504761,.0009123,97.4075,47.4706,21.0050,339.1569,0,U,58900,999,13672,.21993E-3,.8848E-4,0
LEMUR-2-CAEL,2024-022E,2026-07-16T02:27:46.334304,15.41875284,.0007036,97.4056,48.4432,6.2963,353.8371,0,U,58903,999,13679,.24579E-3,.10356E-3,0
LEMUR-2-JOHNNYTRUONG,2024-043BA,2026-07-15T23:40:21.674208,15.62606919,.0004045,97.5396,350.5235,92.1391,268.0330,0,U,59146,999,13253,.29764E-3,.26505E-3,0
LEMUR-2-TOMATOKECHUP,2024-149D,2026-07-16T05:19:03.192672,15.36594859,.0003335,97.3797,279.3526,120.7156,239.4417,0,U,60471,999,10662,.16437E-3,.579E-4,0
LEMUR-2-STELLA,2024-149BT,2026-07-16T04:45:51.123168,15.12381661,.0001252,97.6736,279.7913,119.4240,240.7115,0,U,60533,999,10488,.30425E-3,.5213E-4,0
LEMUR-2-MARHISYAM,2024-149BW,2026-07-15T23:47:23.808192,15.11786231,.000235,97.6879,280.0603,68.5739,291.5741,0,U,60536,999,10483,.34321E-3,.5792E-4,0
LEMUR-2-AHMED-ASRAR,2024-149DN,2026-07-16T01:30:49.552992,15.13317176,.0001315,97.7004,282.3394,205.3539,154.7627,0,U,60576,999,10493,.37543E-3,.662E-4,0
LEMUR-2-LLOYD,2024-149DP,2026-07-16T03:25:37.083648,15.09760013,.0004748,97.6745,278.2966,70.3623,289.8117,0,U,60577,999,10476,.27809E-3,.4425E-4,0
LEMUR-2-SQUIRRELCOMM,2024-149DQ,2026-07-16T04:46:53.243904,15.07450971,.0004046,97.6708,278.0240,322.9708,37.1239,0,U,60578,999,10477,.14009E-3,.206E-4,0
LEMUR-2-SIERRINI,2024-149DR,2026-07-16T03:39:51.297120,15.11523490,.0006481,97.6842,279.8834,88.0014,272.1958,0,U,60579,999,10483,.31379E-3,.5253E-4,0
LEMUR-2-WILSON,2025-009CP,2026-07-16T03:19:44.256288,14.95277841,.0001954,97.7020,275.0959,319.6157,40.4919,0,U,62694,999,8168,.69249E-4,.706E-5,0
LEMUR-2-STAR-FOX,2025-009CR,2026-07-16T04:36:43.385184,15.02847456,.0002077,97.6906,278.5926,38.2858,321.8515,0,U,62696,999,8191,.2516E-3,.3311E-4,0
LEMUR-2-ARIANNA,2025-009CU,2026-07-16T04:34:30.813888,15.02849743,.0002441,97.6848,278.3426,45.4866,314.6558,0,U,62699,999,8191,.26779E-3,.3528E-4,0
LEMUR-2-ALISIA,2025-009DB,2026-07-16T03:54:24.355296,15.03183137,.0004421,97.6971,279.1419,126.4435,233.7199,0,U,62706,999,10451,.29439E-3,.392E-4,0
